SENTINEL-2A             
1 40697U 15028A   26202.27065231 -.00000097  00000+0 -20403-4 0  9990
2 40697  98.5668 276.6364 0001310  98.6114 261.5218 14.30815111578604
SENTINEL-2B             
1 42063U 17013A   26202.33339022 -.00000099  00000+0 -21322-4 0  9997
2 42063  98.5675 276.6239 0001236  95.1345 264.9979 14.30815801489526
SENTINEL-2C             
1 60989U 24157A   26202.15857896  .00000052  00000+0  36435-4 0  9993
2 60989  98.5679 276.4578 0001020 107.4871 252.6423 14.30816822 97845
